[
  {
    "CCSDS_OMM_VERS": "3.0",
    "COMMENT": "GENERATED VIA SPACE-TRACK.ORG API",
    "CREATION_DATE": "2025-11-26T18:00:39",
    "ORIGINATOR": "18 SPCS",
    "OBJECT_NAME": "IRIDIUM 33 DEB",
    "OBJECT_ID": "1997-051FT",
    "CENTER_NAME": "EARTH",
    "REF_FRAME": "TEME",
    "TIME_SYSTEM": "UTC",
    "MEAN_ELEMENT_THEORY": "SGP4",
    "EPOCH": "2025-11-26T01:21:22.565088",
    "MEAN_MOTION": "14.17949865",
    "ECCENTRICITY": "0.01017134",
    "INCLINATION": "86.4337",
    "RA_OF_ASC_NODE": "189.4184",
    "ARG_OF_PERICENTER": "179.4561",
    "MEAN_ANOMALY": "334.8359",
    "EPHEMERIS_TYPE": "0",
    "CLASSIFICATION_TYPE": "U",
    "NORAD_CAT_ID": "34375",
    "ELEMENT_SET_NO": "999",
    "REV_AT_EPOCH": "86475",
    "BSTAR": "0.00045399377000",
    "MEAN_MOTION_DOT": "0.00000996",
    "MEAN_MOTION_DDOT": "0.0000000000000",
    "SEMIMAJOR_AXIS": "7210.432",
    "PERIOD": "101.555",
    "APOAPSIS": "905.636",
    "PERIAPSIS": "758.957",
    "OBJECT_TYPE": "DEBRIS",
    "RCS_SIZE": "SMALL",
    "COUNTRY_CODE": "US",
    "LAUNCH_DATE": "1997-09-14",
    "SITE": "TTMTR",
    "DECAY_DATE": null,
    "FILE": "4903404",
    "GP_ID": "303652682",
    "TLE_LINE0": "0 IRIDIUM 33 DEB",
    "TLE_LINE1": "1 34375U 97051FT  25330.05651117  .00000996  00000-0  45399-3 0  9990",
    "TLE_LINE2": "2 34375  86.4337 189.4184 0101713 179.4561 334.8359 14.17949865864755"
  },
  {
    "CCSDS_OMM_VERS": "3.0",
    "COMMENT": "GENERATED VIA SPACE-TRACK.ORG API",
    "CREATION_DATE": "2025-11-26T23:16:29",
    "ORIGINATOR": "18 SPCS",
    "OBJECT_NAME": "IRIDIUM 33 DEB",
    "OBJECT_ID": "1997-051FU",
    "CENTER_NAME": "EARTH",
    "REF_FRAME": "TEME",
    "TIME_SYSTEM": "UTC",
    "MEAN_ELEMENT_THEORY": "SGP4",
    "EPOCH": "2025-11-26T12:44:51.161280",
    "MEAN_MOTION": "14.62227946",
    "ECCENTRICITY": "0.00253630",
    "INCLINATION": "86.2998",
    "RA_OF_ASC_NODE": "13.8235",
    "ARG_OF_PERICENTER": "222.6868",
    "MEAN_ANOMALY": "137.2373",
    "EPHEMERIS_TYPE": "0",
    "CLASSIFICATION_TYPE": "U",
    "NORAD_CAT_ID": "34376",
    "ELEMENT_SET_NO": "999",
    "REV_AT_EPOCH": "87770",
    "BSTAR": "0.00170790000000",
    "MEAN_MOTION_DOT": "0.00008668",
    "MEAN_MOTION_DDOT": "0.0000000000000",
    "SEMIMAJOR_AXIS": "7064.126",
    "PERIOD": "98.480",
    "APOAPSIS": "703.908",
    "PERIAPSIS": "668.075",
    "OBJECT_TYPE": "DEBRIS",
    "RCS_SIZE": "SMALL",
    "COUNTRY_CODE": "US",
    "LAUNCH_DATE": "1997-09-14",
    "SITE": "TTMTR",
    "DECAY_DATE": null,
    "FILE": "4903484",
    "GP_ID": "303674551",
    "TLE_LINE0": "0 IRIDIUM 33 DEB",
    "TLE_LINE1": "1 34376U 97051FU  25330.53114770  .00008668  00000-0  17079-2 0  9990",
    "TLE_LINE2": "2 34376  86.2998  13.8235 0025363 222.6868 137.2373 14.62227946877700"
  },
  {
    "CCSDS_OMM_VERS": "3.0",
    "COMMENT": "GENERATED VIA SPACE-TRACK.ORG API",
    "CREATION_DATE": "2010-10-21T18:01:00",
    "ORIGINATOR": "18 SPCS",
    "OBJECT_NAME": "IRIDIUM 33 DEB",
    "OBJECT_ID": "1997-051FV",
    "CENTER_NAME": "EARTH",
    "REF_FRAME": "TEME",
    "TIME_SYSTEM": "UTC",
    "MEAN_ELEMENT_THEORY": "SGP4",
    "EPOCH": "2010-10-21T16:21:00.404351",
    "MEAN_MOTION": "15.68788922",
    "ECCENTRICITY": "0.00173520",
    "INCLINATION": "86.2923",
    "RA_OF_ASC_NODE": "204.8753",
    "ARG_OF_PERICENTER": "123.8861",
    "MEAN_ANOMALY": "236.6427",
    "EPHEMERIS_TYPE": "0",
    "CLASSIFICATION_TYPE": "U",
    "NORAD_CAT_ID": "34377",
    "ELEMENT_SET_NO": "999",
    "REV_AT_EPOCH": "9023",
    "BSTAR": "0.07636700000000",
    "MEAN_MOTION_DOT": "0.10803352",
    "MEAN_MOTION_DDOT": "0.0000000000000",
    "SEMIMAJOR_AXIS": "6740.505",
    "PERIOD": "91.790",
    "APOAPSIS": "374.066",
    "PERIAPSIS": "350.673",
    "OBJECT_TYPE": "DEBRIS",
    "RCS_SIZE": "SMALL",
    "COUNTRY_CODE": "US",
    "LAUNCH_DATE": "1997-09-14",
    "SITE": "TTMTR",
    "DECAY_DATE": "2010-10-22",
    "FILE": "981756",
    "GP_ID": "80082446",
    "TLE_LINE0": "0 IRIDIUM 33 DEB",
    "TLE_LINE1": "1 34377U 97051FV  10294.68125468  .10803352  00000-0  76367-1 0  9994",
    "TLE_LINE2": "2 34377 086.2923 204.8753 0017352 123.8861 236.6427 15.68788922 90232"
  },
  {
    "CCSDS_OMM_VERS": "3.0",
    "COMMENT": "GENERATED VIA SPACE-TRACK.ORG API",
    "CREATION_DATE": "2023-07-17T12:36:12",
    "ORIGINATOR": "18 SPCS",
    "OBJECT_NAME": "IRIDIUM 33 DEB",
    "OBJECT_ID": "1997-051FW",
    "CENTER_NAME": "EARTH",
    "REF_FRAME": "TEME",
    "TIME_SYSTEM": "UTC",
    "MEAN_ELEMENT_THEORY": "SGP4",
    "EPOCH": "2023-07-16T23:44:21.913728",
    "MEAN_MOTION": "15.63614136",
    "ECCENTRICITY": "0.00045910",
    "INCLINATION": "86.3650",
    "RA_OF_ASC_NODE": "32.8182",
    "ARG_OF_PERICENTER": "336.2205",
    "MEAN_ANOMALY": "23.8849",
    "EPHEMERIS_TYPE": "0",
    "CLASSIFICATION_TYPE": "U",
    "NORAD_CAT_ID": "34378",
    "ELEMENT_SET_NO": "999",
    "REV_AT_EPOCH": "75770",
    "BSTAR": "0.02268400000000",
    "MEAN_MOTION_DOT": "0.02392212",
    "MEAN_MOTION_DDOT": "0.0000000000000",
    "SEMIMAJOR_AXIS": "6755.364",
    "PERIOD": "92.094",
    "APOAPSIS": "380.331",
    "PERIAPSIS": "374.128",
    "OBJECT_TYPE": "DEBRIS",
    "RCS_SIZE": "SMALL",
    "COUNTRY_CODE": "US",
    "LAUNCH_DATE": "1997-09-14",
    "SITE": "TTMTR",
    "DECAY_DATE": "2023-07-22",
    "FILE": "3959929",
    "GP_ID": "234960616",
    "TLE_LINE0": "0 IRIDIUM 33 DEB",
    "TLE_LINE1": "1 34378U 97051FW  23197.98914252  .02392212  00000-0  22684-1 0  9993",
    "TLE_LINE2": "2 34378  86.3650  32.8182 0004591 336.2205  23.8849 15.63614136757705"
  },
  {
    "CCSDS_OMM_VERS": "3.0",
    "COMMENT": "GENERATED VIA SPACE-TRACK.ORG API",
    "CREATION_DATE": "2025-05-02T02:33:21",
    "ORIGINATOR": "18 SPCS",
    "OBJECT_NAME": "IRIDIUM 33 DEB",
    "OBJECT_ID": "1997-051FX",
    "CENTER_NAME": "EARTH",
    "REF_FRAME": "TEME",
    "TIME_SYSTEM": "UTC",
    "MEAN_ELEMENT_THEORY": "SGP4",
    "EPOCH": "2012-05-03T00:14:37.461120",
    "MEAN_MOTION": "15.86439870",
    "ECCENTRICITY": "0.00278300",
    "INCLINATION": "86.2031",
    "RA_OF_ASC_NODE": "311.2798",
    "ARG_OF_PERICENTER": "290.4443",
    "MEAN_ANOMALY": "199.4530",
    "EPHEMERIS_TYPE": "0",
    "CLASSIFICATION_TYPE": "U",
    "NORAD_CAT_ID": "34379",
    "ELEMENT_SET_NO": "999",
    "REV_AT_EPOCH": "8",
    "BSTAR": "0.12304000000000",
    "MEAN_MOTION_DOT": "0.29912350",
    "MEAN_MOTION_DDOT": "0.0000000000000",
    "SEMIMAJOR_AXIS": "6690.410",
    "PERIOD": "90.769",
    "APOAPSIS": "330.895",
    "PERIAPSIS": "293.656",
    "OBJECT_TYPE": "DEBRIS",
    "RCS_SIZE": "SMALL",
    "COUNTRY_CODE": "US",
    "LAUNCH_DATE": "1997-09-14",
    "SITE": "TTMTR",
    "DECAY_DATE": "2012-05-03",
    "FILE": "4716572",
    "GP_ID": "286604854",
    "TLE_LINE0": "0 IRIDIUM 33 DEB",
    "TLE_LINE1": "1 34379U 97051FX  12124.01015580  .29912350  00000-0  12304+0 0  9998",
    "TLE_LINE2": "2 34379  86.2031 311.2798 0027830 290.4443 199.4530 15.86439870    85"
  },
  {
    "CCSDS_OMM_VERS": "3.0",
    "COMMENT": "GENERATED VIA SPACE-TRACK.ORG API",
    "CREATION_DATE": "2011-10-27T09:29:50",
    "ORIGINATOR": "18 SPCS",
    "OBJECT_NAME": "IRIDIUM 33 DEB",
    "OBJECT_ID": "1997-051FY",
    "CENTER_NAME": "EARTH",
    "REF_FRAME": "TEME",
    "TIME_SYSTEM": "UTC",
    "MEAN_ELEMENT_THEORY": "SGP4",
    "EPOCH": "2011-10-18T17:13:07.838976",
    "MEAN_MOTION": "15.20470427",
    "ECCENTRICITY": "0.00707910",
    "INCLINATION": "86.0814",
    "RA_OF_ASC_NODE": "25.9555",
    "ARG_OF_PERICENTER": "265.8001",
    "MEAN_ANOMALY": "93.5500",
    "EPHEMERIS_TYPE": "0",
    "CLASSIFICATION_TYPE": "U",
    "NORAD_CAT_ID": "34483",
    "ELEMENT_SET_NO": "999",
    "REV_AT_EPOCH": "14238",
    "BSTAR": "0.04832000000000",
    "MEAN_MOTION_DOT": "0.01127274",
    "MEAN_MOTION_DDOT": "0.0000000000000",
    "SEMIMAJOR_AXIS": "6882.562",
    "PERIOD": "94.707",
    "APOAPSIS": "553.149",
    "PERIAPSIS": "455.704",
    "OBJECT_TYPE": "DEBRIS",
    "RCS_SIZE": "SMALL",
    "COUNTRY_CODE": "US",
    "LAUNCH_DATE": "1997-09-14",
    "SITE": "TTMTR",
    "DECAY_DATE": "2011-10-25",
    "FILE": "1178858",
    "GP_ID": "85619406",
    "TLE_LINE0": "0 IRIDIUM 33 DEB",
    "TLE_LINE1": "1 34483U 97051FY  11291.71745184  .01127274  00000-0  48320-1 0  9997",
    "TLE_LINE2": "2 34483 086.0814 025.9555 0070791 265.8001 093.5500 15.20470427142380"
  },
  {
    "CCSDS_OMM_VERS": "3.0",
    "COMMENT": "GENERATED VIA SPACE-TRACK.ORG API",
    "CREATION_DATE": "2011-08-22T17:28:18",
    "ORIGINATOR": "18 SPCS",
    "OBJECT_NAME": "IRIDIUM 33 DEB",
    "OBJECT_ID": "1997-051FZ",
    "CENTER_NAME": "EARTH",
    "REF_FRAME": "TEME",
    "TIME_SYSTEM": "UTC",
    "MEAN_ELEMENT_THEORY": "SGP4",
    "EPOCH": "2011-08-22T14:35:03.057791",
    "MEAN_MOTION": "15.77217827",
    "ECCENTRICITY": "0.00251930",
    "INCLINATION": "86.2464",
    "RA_OF_ASC_NODE": "43.8833",
    "ARG_OF_PERICENTER": "226.2029",
    "MEAN_ANOMALY": "133.8908",
    "EPHEMERIS_TYPE": "0",
    "CLASSIFICATION_TYPE": "U",
    "NORAD_CAT_ID": "34484",
    "ELEMENT_SET_NO": "999",
    "REV_AT_EPOCH": "13687",
    "BSTAR": "0.00941670000000",
    "MEAN_MOTION_DOT": "0.01761830",
    "MEAN_MOTION_DDOT": "0.0000000000000",
    "SEMIMAJOR_AXIS": "6716.468",
    "PERIOD": "91.300",
    "APOAPSIS": "355.254",
    "PERIAPSIS": "321.412",
    "OBJECT_TYPE": "DEBRIS",
    "RCS_SIZE": "SMALL",
    "COUNTRY_CODE": "US",
    "LAUNCH_DATE": "1997-09-14",
    "SITE": "TTMTR",
    "DECAY_DATE": "2011-08-27",
    "FILE": "1142275",
    "GP_ID": "84631851",
    "TLE_LINE0": "0 IRIDIUM 33 DEB",
    "TLE_LINE1": "1 34484U 97051FZ  11234.60767428  .01761830  00000-0  94167-2 0  9991",
    "TLE_LINE2": "2 34484 086.2464 043.8833 0025193 226.2029 133.8908 15.77217827136871"
  }
]